NAVSTAR 67 (USA 239)
1 38833U 12053A   26192.24735518  .00000021  00000+0  00000+0 0  9992
2 38833  53.5891 142.6137 0181750  66.1505 295.7065  2.00567820 99920
